AMC-1 (GE-1)            
1 24315U 96054A   23017.26654214  .00000078  00000+0  00000+0 0  9995
2 24315   6.1239  71.3176 0003362 233.0754 137.0789  1.00272747 96528
AMC-3 (GE-3)            
1 24936U 97050A   23017.49343251 -.00000246  00000+0  00000+0 0  9990
2 24936   5.0669  77.4577 0002963 223.7737 281.0350  1.00270265 92946
ASTRA 1G                
1 25071U 97076A   23016.86608869  .00000129  00000+0  00000+0 0  9997
2 25071   6.7314  66.6281 0003395 229.5794 150.9881  1.00269848 92039
ASTRA 2A                
1 25462U 98050A   23016.77410633  .00000086  00000+0  00000+0 0  9996
2 25462   3.9361  83.2821 0003096 213.2155 155.2990  1.00271920 89239
AMC-4 (GE-4)            
1 25954U 99060A   23017.37757591  .00000106  00000+0  00000+0 0  9991
2 25954   2.0497  89.4606 0002588 221.0465 167.0541  1.00268715 84988
NSS-11 (AAP-1)          
1 26554U 00059A   23017.11241682  .00000046  00000+0  00000+0 0  9992
2 26554   0.0397 297.4081 0002346 353.7351  41.5802  1.00270866 81667
AMC-6 (GE-6)            
1 26580U 00067A   23016.69114862  .00000126  00000+0  00000+0 0  9990
2 26580   0.0348 300.2584 0002419   0.4421 284.9613  1.00269276 81394
ASTRA 2D                
1 26638U 00081A   23012.27667747  .00000143  00000+0  00000+0 0  9994
2 26638   7.7344  58.8691 0001847 227.3965 308.5863  1.00276875 40354
AMC-8 (GE-8)            
1 26639U 00081B   23016.86608869 -.00000032  00000+0  00000+0 0  9992
2 26639   2.8998  87.5302 0005435 221.6363 138.1878  0.99151583 80813
ASTRA 2C                
1 26853U 01025A   23016.63169939 -.00000243  00000+0  00000+0 0  9998
2 26853   5.0888  77.2774 0002874 217.5857 335.8840  1.00272709 79066
NSS-7                   
1 27414U 02019A   23017.00171734 -.00000144  00000+0  00000+0 0  9994
2 27414   6.3980  69.5367 0002747 231.2422 155.9773  1.00271453 76056
NSS-6                   
1 27603U 02057A   23017.11538042  .00000126  00000+0  00000+0 0  9996
2 27603   2.1499  89.1956 0003550 213.9762  45.1248  1.00273774 73539
AMC-11 (GE-11)          
1 28252U 04017A   23017.48558767 -.00000030  00000+0  00000+0 0  9996
2 28252   0.0452 296.6980 0002828 344.8436 258.7986  1.00271623 68207
AMC-15                  
1 28446U 04041A   23016.84115953 -.00000067  00000+0  00000+0 0  9993
2 28446   0.0289 322.1375 0002307 341.6956   9.9299  1.00271192 66805
NSS-10 (AMC-12)         
1 28526U 05003A   23017.06996748 -.00000233  00000+0  00000+0 0  9990
2 28526   3.3129  85.0682 0002900 209.1337 169.7481  1.00269975 65813
ASTRA 1KR               
1 29055U 06012A   23017.08121177  .00000140  00000+0  00000+0 0  9993
2 29055   0.0679 270.5300 0004902 352.9028 261.2397  1.00268067 61249
AMC-18                  
1 29644U 06054B   23016.84569209 -.00000194  00000+0  00000+0 0  9998
2 29644   0.0221  62.1327 0002051 235.9757  39.3430  1.00270630 59026
ASTRA 1L                
1 31306U 07016A   23017.58331500  .00000139  00000+0  00000+0 0  9996
2 31306   0.0787 300.8350 0005355 352.4526  52.6358  1.00270090 57540
ASTRA 4A (SIRIUS 4)     
1 32299U 07057A   23017.36530003  .00000052  00000+0  00000+0 0  9992
2 32299   0.0196  56.8189 0002514 241.0549 314.9437  1.00271493 55454
AMC-21                  
1 33275U 08038B   23017.05253450  .00000057  00000+0  00000+0 0  9996
2 33275   0.0521 289.6002 0002356  22.8933  57.7372  1.00272376 52961
ASTRA 1M                
1 33436U 08057A   23016.83452229  .00000141  00000+0  00000+0 0  9990
2 33436   0.0387  90.8255 0001009 145.2313 199.5634  1.00273206 33214
CIEL-2                  
1 33453U 08063A   23016.69315343  .00000080  00000+0  00000+0 0  9997
2 33453   0.0530 252.9006 0002981  57.3031 286.3358  1.00272952 51628
NSS-9                   
1 33749U 09008A   23016.82695163  .00000093  00000+0  00000+0 0  9995
2 33749   0.0371 304.6093 0002090 358.6307 293.5093  1.00270532 51026
SES-7 (PROTOSTAR 2)     
1 34941U 09027A   23017.45760771 -.00000325  00000+0  00000+0 0  9998
2 34941   0.0314  75.2357 0002096 221.8535  92.5020  1.00270524 50119
NSS-12                  
1 36032U 09058A   23016.82688230  .00000093  00000+0  00000+0 0  9995
2 36032   0.0392 293.7295 0002698   7.9412 168.9736  1.00271506 48414
SES-1                   
1 36516U 10016A   23017.55932921 -.00000095  00000+0  00000+0 0  9991
2 36516   0.0173 340.4137 0002489 329.4456 267.2026  1.00270952 46632
ASTRA 3B                
1 36581U 10021A   23017.51243447  .00000156  00000+0  00000+0 0  9990
2 36581   0.0521  45.5986 0003356 248.7434  30.2837  1.00268958 46157
SES-3                   
1 37748U 11035A   23017.13157146 -.00000081  00000+0  00000+0 0  9998
2 37748   0.0381 308.6701 0002747 352.2628 119.7212  1.00272412 42194
ASTRA 1N                
1 37775U 11041A   23017.58331500  .00000139  00000+0  00000+0 0  9995
2 37775   0.0473   4.0729 0002975 352.5251 349.3216  1.00272275 41901
SES-2                   
1 37809U 11049A   23017.49038174 -.00000176  00000+0  00000+0 0  9994
2 37809   0.0435 290.4638 0002830  17.3833 258.3155  1.00273031 41495
QUETZSAT 1              
1 37826U 11054A   23016.84691241 -.00000220  00000+0  00000+0 0  9997
2 37826   0.0109  14.6253 0002546 282.6859  46.5858  1.00271575 37370
SES-4                   
1 38087U 12007A   23017.07301826 -.00000148  00000+0  00000+0 0  9998
2 38087   0.0206  53.8816 0002554 249.5729 177.0468  1.00270263 39984
SES-5                   
1 38652U 12036A   23017.09632740  .00000054  00000+0  00000+0 0  9997
2 38652   0.0597 291.0774 0001848   7.5962 217.2343  1.00271368 38569
ASTRA 2F                
1 38778U 12051A   23017.51339329  .00000170  00000+0  00000+0 0  9996
2 38778   0.0919 251.9398 0003676   1.0477  76.6697  1.00269270 37796
SES-6                   
1 39172U 13026A   23017.06935733 -.00000240  00000+0  00000+0 0  9998
2 39172   0.0523 292.3826 0002050 349.2449 179.0605  1.00270644 35211
O3B FM5                 
1 39188U 13031A   23015.76100119 -.00000008  00000+0  00000+0 0  9990
2 39188   0.0656   2.4319 0002890 297.6946  59.8439  5.00115381174575
O3B FM4                 
1 39189U 13031B   23017.21613855 -.00000008  00000+0  00000+0 0  9999
2 39189   0.0382 357.1937 0002834 304.3538  58.4236  5.00115858174769
O3B FM2                 
1 39190U 13031C   23016.70802463 -.00000008  00000+0  00000+0 0  9999
2 39190   0.0337 353.6445 0002809 305.7311  60.5952  5.00115142174701
O3B PFM                 
1 39191U 13031D   23016.73419987 -.00000008  00000+0  00000+0 0  9998
2 39191   0.0566   2.6517 0002740 292.7116  64.6073  5.00115847174261
ASTRA 2E                
1 39285U 13056A   23017.51339329  .00000170  00000+0  00000+0 0  9996
2 39285   0.0579 349.0258 0002739 314.9118  26.0201  1.00268782 34089
SES-8                   
1 39460U 13071A   23016.78370014 -.00000248  00000+0  00000+0 0  9999
2 39460   0.0482 250.2071 0000994  97.3511 145.5234  1.00271122 31928
ASTRA 5B                
1 39617U 14011B   23016.82896770  .00000176  00000+0  00000+0 0  9994
2 39617   0.0321  16.4089 0003759 284.4794 145.0198  1.00273400 32161
O3B FM3                 
1 40079U 14038A   23016.98883418 -.00000008  00000+0  00000+0 0  9994
2 40079   0.0459 358.5146 0004064 262.8768  98.5615  5.00116690155738
O3B FM7                 
1 40080U 14038B   23016.73511404 -.00000008  00000+0  00000+0 0  9992
2 40080   0.0438 353.4461 0003210 337.4116  29.1233  5.00115585155478
O3B FM6                 
1 40081U 14038C   23016.56163686 -.00000008  00000+0  00000+0 0  9999
2 40081   0.0450 359.2004 0002812 296.8881  63.8815  5.00115297155408
O3B FM8                 
1 40082U 14038D   23016.81536476 -.00000008  00000+0  00000+0 0  9999
2 40082   0.0419 359.8850 0002655 294.4455  65.6408  5.00115735155545
O3B FM10                
1 40348U 14083A   23016.84155104 -.00000008  00000+0  00000+0 0  9992
2 40348   0.0522   5.5266 0002719 290.7436  63.7008  5.00115168147489
O3B FM11                
1 40349U 14083B   23016.65506169 -.00000008  00000+0  00000+0 0  9993
2 40349   0.0540   0.8384 0003146 306.9131  52.2189  5.00115405147506
O3B FM12                
1 40350U 14083C   23016.68229707 -.00000008  00000+0  00000+0 0  9998
2 40350   0.0530   1.0278 0002938 295.6455  63.2956  5.00115295147515
O3B FM9                 
1 40351U 14083D   23016.70898305 -.00000008  00000+0  00000+0 0  9998
2 40351   0.0547 359.8382 0002757 297.9902  62.1426  5.00116114147662
ASTRA 2G                
1 40364U 14089A   23017.29818302  .00000170  00000+0  00000+0 0  9991
2 40364   0.0520 319.9686 0002423  64.5717 227.4499  1.00272317 29516
SES-9                   
1 41380U 16013A   23017.09899341 -.00000324  00000+0  00000+0 0  9991
2 41380   0.0396 283.7336 0000732 114.9415 221.5166  1.00269718 25245
SES-10                  
1 42432U 17017A   23017.42265457 -.00000253  00000+0  00000+0 0  9998
2 42432   0.0163  60.8368 0002644 235.1848 265.8087  1.00272204 21226
SES-15                  
1 42709U 17026A   23017.55137955  .00000080  00000+0  00000+0 0  9997
2 42709   0.0179 359.9433 0000158 354.0232 192.0753  1.00269739 21681
SES-11 (ECHOSTAR 105)   
1 42967U 17063A   23016.84124670 -.00000068  00000+0  00000+0 0  9992
2 42967   0.0519 275.0486 0002485  19.6618  19.1908  1.00271242 19217
SES-14                  
1 43175U 18012B   23016.85275245 -.00000257  00000+0  00000+0 0  9995
2 43175   0.0158 337.0152 0000745 311.9715  86.5150  1.00271727 18540
O3B FM15                
1 43231U 18024A   23016.57502773 -.00000008  00000+0  00000+0 0  9993
2 43231   0.0516   9.3541 0003071 286.2391  64.3740  5.00116249 88616
O3B FM16                
1 43232U 18024B   23016.62846124 -.00000008  00000+0  00000+0 0  9991
2 43232   0.0522  13.8460 0003079 282.4745  63.6468  5.00116034 88524
O3B FM14                
1 43233U 18024C   23016.66823913 -.00000008  00000+0  00000+0 0  9997
2 43233   0.0518  15.5680 0003048 284.3201  60.0806  5.00115440 88546
O3B FM13                
1 43234U 18024D   23015.52243661 -.00000008  00000+0  00000+0 0  9998
2 43234   0.0672   0.5651 0003865 291.8606  67.5324  5.00115024 88601
SES-12                  
1 43488U 18049A   23017.09285414 -.00000248  00000+0  00000+0 0  9998
2 43488   0.0115  29.8481 0002251 250.5144 324.2994  1.00270565 16904
O3B FM20                
1 44112U 19020A   23017.29459514 -.00000008  00000+0  00000+0 0  9993
2 44112   0.0515   5.4972 0003421 293.7813  60.6861  5.00115497 69278
O3B FM19                
1 44113U 19020B   23016.72179309 -.00000008  00000+0  00000+0 0  9992
2 44113   0.0716  11.7392 0002854 313.3846  34.8565  5.00115103 69034
O3B FM17                
1 44114U 19020C   23016.60230133 -.00000008  00000+0  00000+0 0  9993
2 44114   0.0358  21.7218 0003187 273.2716  64.9724  5.00115727 69117
O3B FM18                
1 44115U 19020D   23016.54878149 -.00000008  00000+0  00000+0 0  9992
2 44115   0.0519   5.3751 0002955 289.3071  65.2860  5.00115856 69232
SES-17                  
1 49332U 21095A   23016.56201914 -.00000250  00000+0  00000+0 0  9994
2 49332   0.0147  68.3531 0000838 197.0017 345.5984  1.00269886  5334
SES-22                  
1 52933U 22071A   23017.55261750  .00000108  00000+0  00000+0 0  9995
2 52933   0.0174  56.7794 0002375 237.2603 246.5803  1.00271458  2068
SES-20                  
1 53960U 22123A   23013.68582824 -.00000080  00000+0  00000+0 0  9992
2 53960   0.0623 118.0584 0000550 171.9096 326.6979  1.00268757  1005
SES-21                  
1 53961U 22123B   23016.69271760  .00000091  00000+0  00000+0 0  9992
2 53961   0.0306  51.0275 0000710 255.2306 288.0339  1.00269506  1054
O3B MPOWER-A F1         
1 54755U 22174A   23014.10919612  .00000037  00000+0  00000+0 0  9999
2 54755   7.8569 219.7595 1587644 254.6365  79.3111  6.76998264  2019
O3B MPOWER-A F2         
1 54756U 22174B   23016.82613135  .00000049  00000+0  00000+0 0  9995
2 54756   9.6178 216.0602 1871023 268.0364  70.5747  7.26306021  2243
